LEMUR-2-ELHAM           
1 44086U 19018J   23008.13950899  .00066350  00000+0  12669-2 0  9993
2 44086  97.2940  74.7025 0007736  86.9574 273.2561 15.47870236210273
LEMUR-2-VICTOR-ANDREW   
1 44087U 19018K   23008.44664743  .00132775  00000+0  17122-2 0  9992
2 44087  97.2928  76.7386 0005706  85.6203 274.5705 15.58537114210442
LEMUR-2-LILLYJO         
1 44396U 19038L   23008.21425638  .00019586  00000+0  77989-3 0  9992
2 44396  97.6399 345.4406 0020248 132.3139 227.9818 15.25094300194218
LEMUR-2-WANLI           
1 44402U 19038S   23007.66191848  .00028676  00000+0  11519-2 0  9997
2 44402  97.6409 344.4997 0020066 131.7329 228.5628 15.24722603194101
LEMUR-2-MORAG           
1 44403U 19038T   23008.41816342  .00017688  00000+0  73630-3 0  9999
2 44403  97.6465 346.2585 0019856 131.4290 228.8657 15.23630844194240
LEMUR-2-DUSTINTHEWIND   
1 44405U 19038V   23007.90257493  .00024141  00000+0  99579-3 0  9992
2 44405  97.6432 344.5272 0020439 131.0480 229.2527 15.23860285194139
LEMUR-2-ALEX-MADDY      
1 44407U 19038X   23007.66115663  .00015786  00000+0  71637-3 0  9999
2 44407  97.6526 343.8688 0020531 141.4611 218.8094 15.20705352193998
LEMUR-2-EJATTA          
1 44409U 19038Z   23008.16843808  .00022204  00000+0  89040-3 0  9996
2 44409  97.6409 345.7149 0020222 125.8685 234.4433 15.24830857194240
LEMUR-2-GREGROBINSON    
1 44411U 19038AB  23007.86569105  .00027412  00000+0  10863-2 0  9992
2 44411  97.6444 345.7339 0019100 136.3047 223.9706 15.25203079193825
LEMUR-2-YNDRD           
1 44413U 19038AD  23008.35402458  .00018373  00000+0  82231-3 0  9991
2 44413  97.6500 344.3084 0020139 140.0124 220.2598 15.21152554194102
LEMUR-2-JPGSQUARED      
1 44855U 19089D   23008.25488985  .00016954  00000+0  11399-2 0  9994
2 44855  36.9664 318.9641 0002741 110.4061 249.6977 15.06104538168867
LEMUR-2-HIMOMANDDAD     
1 44860U 19089J   23008.51628888  .00017482  00000+0  11793-2 0  9992
2 44860  36.9663 319.1783 0002564 109.3507 250.7514 15.05974805168868
LEMUR-2-PAPPY           
1 44861U 19089K   23007.91770755  .00013339  00000+0  91219-3 0  9996
2 44861  36.9662 322.7154 0002605  97.4874 262.6166 15.05545019168732
LEMUR-2-THEODOSIA       
1 44863U 19089M   23007.90336131  .00018157  00000+0  12187-2 0  9992
2 44863  36.9654 321.6498 0002693 107.9739 252.1299 15.06149845168658
LEMUR-2-ETHANOAKES      
1 46298U 20061AC  23007.67096650  .00027189  00000+0  11395-2 0  9996
2 46298  97.4301  81.2964 0001007 140.2287 219.9024 15.23487605129524
LEMUR-2-OSCARLATOR      
1 46299U 20061AD  23007.67374151  .00033452  00000+0  13585-2 0  9995
2 46299  97.4308  81.4942 0000556 134.8625 225.2658 15.24506735129567
LEMUR-2-SCHMIDTFALL     
1 46315U 20061AV  23008.47240713  .00030900  00000+0  12309-2 0  9997
2 46315  97.4314  82.9240 0002227 141.2115 218.9283 15.25169880129765
LEMUR-2-DJUPROERA       
1 46316U 20061AW  23008.20026253  .00034235  00000+0  13194-2 0  9998
2 46316  97.4308  82.9118 0002162 139.0741 221.0660 15.26251291129742
LEMUR-2-SQUAREJAWS      
1 46317U 20061AX  23008.45523273  .00031725  00000+0  12412-2 0  9993
2 46317  97.4310  83.0517 0002219 137.1815 222.9597 15.25766983129786
LEMUR-2-URSA-AVION      
1 46318U 20061AY  23007.48132246  .00034875  00000+0  13747-2 0  9993
2 46318  97.4311  82.0510 0002260 140.8140 219.3262 15.25495501129636
LEMUR-2-SLICERS         
1 46500U 20068Q   23007.78286877  .00016137  00000+0  10173-2 0  9997
2 46500  97.7418 314.2631 0010667 327.3498  32.7078 15.09167762124883
LEMUR-2-DAYWZAGOODDAY   
1 46501U 20068R   23007.28432991  .00012984  00000+0  81488-3 0  9997
2 46501  97.7442 314.0526 0011082 329.8618  30.2049 15.09382633124815
LEMUR-2-SUSURRUS        
1 46502U 20068S   23007.78370472  .00011440  00000+0  72419-3 0  9998
2 46502  97.7405 314.2576 0009463 325.4248  34.6396 15.09112461124883
LEMUR-2-NICHOL          
1 46503U 20068T   23007.61476979  .00012492  00000+0  79423-3 0  9990
2 46503  97.7434 314.0282 0011042 335.3572  24.7422 15.08917334124852
LEMUR-2-OZARAK          
1 46908U 20081D   23008.31004329  .00012376  00000+0  86601-3 0  9995
2 46908  36.9028  85.3039 0006430 299.7518  60.2684 15.04692389119003
LEMUR-2-JINDRA          
1 46909U 20081E   23008.28448975  .00014840  00000+0  10118-2 0  9998
2 46909  36.9029  83.2586 0006727 310.8413  49.1899 15.05603751119030
LEMUR-2-WALLACE         
1 46910U 20081F   23008.26066135  .00013241  00000+0  91290-3 0  9997
2 46910  36.9050  83.9835 0006547 309.1830  50.8345 15.05224421119010
LEMUR-2-JEREMIAH        
1 46911U 20081G   23008.52196956  .00013811  00000+0  95767-3 0  9998
2 46911  36.9060  82.4021 0006242 310.2972  49.7266 15.04999695119060
LEMUR-2-NEVA            
1 47450U 21006AP  23008.49503052  .00018885  00000+0  81410-3 0  9996
2 47450  97.4209  70.0666 0008146 284.8110  75.2224 15.22578752108433
LEMUR-2-SAOIRSEDH5GUO   
1 47453U 21006AS  23007.60496252  .00023664  00000+0  10007-2 0  9998
2 47453  97.4227  69.3711 0006987 291.3152  68.7338 15.23192518108298
LEMUR-2-NALLYWACKER     
1 47457U 21006AW  23007.64143830  .00023934  00000+0  10061-2 0  9997
2 47457  97.4202  69.3825 0007686 288.7814  71.2589 15.23387253108315
LEMUR-2-MANGO1          
1 47493U 21006CJ  23007.88366687  .00015869  00000+0  72458-3 0  9997
2 47493  97.4154  68.2443 0007862 293.5251  66.5158 15.20649814108297
LEMUR-2-RUAIRI-EILIDH   
1 47511U 21006DC  23007.87404752  .00019547  00000+0  87495-3 0  9997
2 47511  97.4139  67.9059 0005542 298.4434  61.6243 15.21302035108271
LEMUR-2-JENNIFERSONG    
1 47525U 21006DR  23007.90341756  .00024754  00000+0  10404-2 0  9991
2 47525  97.4156  69.2368 0007757 287.5475  72.4914 15.23385555108351
LEMUR-2-CHANTAL         
1 47529U 21006DV  23007.61064465  .00019054  00000+0  87431-3 0  9994
2 47529  97.4143  67.3097 0005156 302.7397  57.3341 15.20456623109161
LEMUR-2-NOOBNOOB        
1 47538U 21006DY  23008.11208051  .00021988  00000+0  96270-3 0  9991
2 47538  97.4201  69.4976 0007898 289.1526  70.8855 15.22019450108357
LEMUR-2-AMANDA-SVANTE   
1 48269U 21034B   23007.67051095  .00007446  00000+0  79487-3 0  9992
2 48269  97.7281  79.0613 0004581 115.2480 244.9213 14.89091540 91905
LEMUR-2-SPECIAL-K       
1 48273U 21034F   23008.15071016  .00007381  00000+0  78794-3 0  9994
2 48273  97.7281  79.5047 0004625 110.3397 249.8318 14.89092356 91982
LEMUR-2-JACKSON         
1 48885U 21059G   23007.60229809  .00029462  00000+0  12683-2 0  9992
2 48885  97.5713 142.5232 0007346 106.8347 253.3695 15.22538910 84938
LEMUR-2-ANNABANANA      
1 48923U 21059AW  23007.36746279  .00031724  00000+0  12927-2 0  9998
2 48923  97.5650 142.8610 0010412  98.4480 261.7937 15.24356300 84964
LEMUR-2-JOHN-TREIRES    
1 48925U 21059AY  23007.80122083  .00033944  00000+0  13324-2 0  9998
2 48925  97.5759 144.2240 0012215  98.7674 261.4947 15.25576947 85064
LEMUR-2-AC-CUBED        
1 48927U 21059BA  23008.17294996  .00025301  00000+0  10440-2 0  9998
2 48927  97.5737 144.1759 0014855 101.7863 258.5041 15.23929552 85102
LEMUR-2-MERIMA          
1 48929U 21059BC  23007.61853140  .00030742  00000+0  12254-2 0  9990
2 48929  97.5658 143.7612 0014260 102.9398 257.3433 15.25058659 85043
LEMUR-2-CARLSANTAMARI   
1 48959U 21059CJ  23008.13958496  .00044458  00000+0  15504-2 0  9991
2 48959  97.5720 145.5331 0012573 102.1105 258.1544 15.29414625 85198
LEMUR-2-RAMONAMAE       
1 51021U 22002AP  23008.17393287  .00022919  00000+0  10444-2 0  9995
2 51021  97.4651  77.6608 0009292  84.6997 275.5298 15.20630553 54469
LEMUR-2-KING-JULIEN     
1 51022U 22002AQ  23007.60583758  .00023703  00000+0  10888-2 0  9991
2 51022  97.4633  76.9404 0009006  84.1717 276.0545 15.20349486 54377
LEMUR-2-ROHOVITHSA      
1 51036U 22002BE  23007.92395833  .00013792  00000+0  68771-3 0  9998
2 51036  97.4659  76.8089 0009819  89.0013 271.2346 15.17608937 54385
LEMUR-2-MIRIWARI        
1 51054U 22002BY  23008.12948781  .00014420  00000+0  71760-3 0  9998
2 51054  97.4646  76.9584 0008950  82.5655 277.6596 15.17676691 54410
LEMUR-2-DJIRANG         
1 51058U 22002CC  23008.13033656  .00017834  00000+0  88664-3 0  9992
2 51058  97.4626  76.8630 0008728  82.0044 278.2179 15.17664664 54414
LEMUR-2-KRYWE           
1 51100U 22003G   23008.39487945  .00092129  00000+0  15499-2 0  9998
2 51100  44.9846   9.5944 0008655  60.5452 299.6302 15.50744483 55160
LEMUR-2-TENNYSONLILY    
1 52732U 22057A   23007.58889914  .00024114  00000+0  12277-2 0  9991
2 52732  97.5372 124.8843 0007684 196.2169 163.8820 15.16775884 34314
LEMUR-2-VANDENDRIES     
1 52733U 22057B   23008.30860932  .00013815  00000+0  71799-3 0  9993
2 52733  97.5244 125.2865 0006885 189.3411 170.7694 15.16176808 34426
LEMUR-2-KAREN B         
1 52736U 22057E   23008.06171337  .00026140  00000+0  13122-2 0  9993
2 52736  97.5237 125.0988 0006547 179.9250 180.1985 15.17260737 34396
LEMUR-2-HANCOM-1        
1 52740U 22057J   23008.25378685  .00016335  00000+0  85251-3 0  9992
2 52740  97.5427 125.7398 0009855 184.5282 175.5863 15.15969615 34411
LEMUR-2-MIMI1307        
1 52769U 22057AP  23007.29620407  .00007385  00000+0  37609-3 0  9997
2 52769  97.5411 125.1210 0014153 166.7419 193.4189 15.17005727 34296
